[{"OBJECT_NAME":"SAPPHIRE","OBJECT_ID":"2013-009C","EPOCH":"2026-03-07T12:23:45.804768","MEAN_MOTION":14.35208115,"ECCENTRICITY":0.00110805,"INCLINATION":98.4218,"RA_OF_ASC_NODE":248.3954,"ARG_OF_PERICENTER":186.054,"MEAN_ANOMALY":174.0513,"EPHEMERIS_TYPE":0,"CLASSIFICATION_TYPE":"U","NORAD_CAT_ID":39088,"ELEMENT_SET_NO":999,"REV_AT_EPOCH":68199,"BSTAR":0.00011003412,"MEAN_MOTION_DOT":2.72e-6,"MEAN_MOTION_DDOT":0},{"OBJECT_NAME":"PRAETORIAN SDA_602","OBJECT_ID":"2025-203A","EPOCH":"2026-03-07T13:09:36.029952","MEAN_MOTION":13.84331685,"ECCENTRICITY":0.00073052,"INCLINATION":81.3004,"RA_OF_ASC_NODE":104.924,"ARG_OF_PERICENTER":107.8982,"MEAN_ANOMALY":252.2972,"EPHEMERIS_TYPE":0,"CLASSIFICATION_TYPE":"U","NORAD_CAT_ID":65565,"ELEMENT_SET_NO":999,"REV_AT_EPOCH":2463,"BSTAR":0.00022992212,"MEAN_MOTION_DOT":2.69e-6,"MEAN_MOTION_DDOT":0},{"OBJECT_NAME":"PRAETORIAN SDA_603","OBJECT_ID":"2025-203B","EPOCH":"2026-03-07T14:46:05.884032","MEAN_MOTION":13.83902646,"ECCENTRICITY":0.00107745,"INCLINATION":81.3003,"RA_OF_ASC_NODE":104.7044,"ARG_OF_PERICENTER":106.8913,"MEAN_ANOMALY":253.3426,"EPHEMERIS_TYPE":0,"CLASSIFICATION_TYPE":"U","NORAD_CAT_ID":65566,"ELEMENT_SET_NO":999,"REV_AT_EPOCH":2465,"BSTAR":0.00029176012,"MEAN_MOTION_DOT":3.36e-6,"MEAN_MOTION_DDOT":0},{"OBJECT_NAME":"PRAETORIAN SDA_604","OBJECT_ID":"2025-203C","EPOCH":"2026-03-07T13:43:30.784512","MEAN_MOTION":13.83034022,"ECCENTRICITY":0.00067874,"INCLINATION":81.3024,"RA_OF_ASC_NODE":105.0013,"ARG_OF_PERICENTER":113.1765,"MEAN_ANOMALY":247.0107,"EPHEMERIS_TYPE":0,"CLASSIFICATION_TYPE":"U","NORAD_CAT_ID":65567,"ELEMENT_SET_NO":999,"REV_AT_EPOCH":2463,"BSTAR":5.419248e-5,"MEAN_MOTION_DOT":7.1e-7,"MEAN_MOTION_DDOT":0},{"OBJECT_NAME":"PRAETORIAN SDA_605","OBJECT_ID":"2025-203D","EPOCH":"2026-03-07T13:37:32.264256","MEAN_MOTION":13.83528689,"ECCENTRICITY":0.0009542,"INCLINATION":81.2986,"RA_OF_ASC_NODE":104.7718,"ARG_OF_PERICENTER":103.5369,"MEAN_ANOMALY":256.6851,"EPHEMERIS_TYPE":0,"CLASSIFICATION_TYPE":"U","NORAD_CAT_ID":65568,"ELEMENT_SET_NO":999,"REV_AT_EPOCH":2464,"BSTAR":7.1223185e-5,"MEAN_MOTION_DOT":9.0e-7,"MEAN_MOTION_DDOT":0},{"OBJECT_NAME":"PRAETORIAN SDA_606","OBJECT_ID":"2025-203E","EPOCH":"2026-03-07T15:00:51.856416","MEAN_MOTION":13.83530613,"ECCENTRICITY":0.00072145,"INCLINATION":81.3021,"RA_OF_ASC_NODE":104.9066,"ARG_OF_PERICENTER":106.118,"MEAN_ANOMALY":254.0771,"EPHEMERIS_TYPE":0,"CLASSIFICATION_TYPE":"U","NORAD_CAT_ID":65569,"ELEMENT_SET_NO":999,"REV_AT_EPOCH":2464,"BSTAR":0.00025544339,"MEAN_MOTION_DOT":2.93e-6,"MEAN_MOTION_DDOT":0},{"OBJECT_NAME":"PRAETORIAN SDA_607","OBJECT_ID":"2025-203F","EPOCH":"2026-03-07T14:56:26.021760","MEAN_MOTION":13.84464434,"ECCENTRICITY":0.00102316,"INCLINATION":81.3007,"RA_OF_ASC_NODE":104.7227,"ARG_OF_PERICENTER":106.9088,"MEAN_ANOMALY":253.3192,"EPHEMERIS_TYPE":0,"CLASSIFICATION_TYPE":"U","NORAD_CAT_ID":65570,"ELEMENT_SET_NO":999,"REV_AT_EPOCH":2465,"BSTAR":0.00022180837,"MEAN_MOTION_DOT":2.6e-6,"MEAN_MOTION_DDOT":0},{"OBJECT_NAME":"PRAETORIAN SDA_608","OBJECT_ID":"2025-203G","EPOCH":"2026-03-07T13:32:34.386432","MEAN_MOTION":13.83886649,"ECCENTRICITY":0.00071832,"INCLINATION":81.2977,"RA_OF_ASC_NODE":104.8952,"ARG_OF_PERICENTER":112.6257,"MEAN_ANOMALY":247.566,"EPHEMERIS_TYPE":0,"CLASSIFICATION_TYPE":"U","NORAD_CAT_ID":65571,"ELEMENT_SET_NO":999,"REV_AT_EPOCH":2463,"BSTAR":6.0571979e-5,"MEAN_MOTION_DOT":7.9e-7,"MEAN_MOTION_DDOT":0},{"OBJECT_NAME":"PRAETORIAN SDA_609","OBJECT_ID":"2025-203H","EPOCH":"2026-03-07T14:27:09.351648","MEAN_MOTION":13.84314432,"ECCENTRICITY":0.00081577,"INCLINATION":81.302,"RA_OF_ASC_NODE":104.8679,"ARG_OF_PERICENTER":106.2606,"MEAN_ANOMALY":253.9449,"EPHEMERIS_TYPE":0,"CLASSIFICATION_TYPE":"U","NORAD_CAT_ID":65572,"ELEMENT_SET_NO":999,"REV_AT_EPOCH":2464,"BSTAR":0.00024555997,"MEAN_MOTION_DOT":2.86e-6,"MEAN_MOTION_DDOT":0},{"OBJECT_NAME":"PRAETORIAN SDA_610","OBJECT_ID":"2025-203J","EPOCH":"2026-03-07T14:53:40.477632","MEAN_MOTION":13.84011023,"ECCENTRICITY":0.00077938,"INCLINATION":81.2978,"RA_OF_ASC_NODE":104.809,"ARG_OF_PERICENTER":107.8765,"MEAN_ANOMALY":252.3242,"EPHEMERIS_TYPE":0,"CLASSIFICATION_TYPE":"U","NORAD_CAT_ID":65573,"ELEMENT_SET_NO":999,"REV_AT_EPOCH":2464,"BSTAR":6.8510113e-5,"MEAN_MOTION_DOT":8.8e-7,"MEAN_MOTION_DDOT":0},{"OBJECT_NAME":"PRAETORIAN SDA_611","OBJECT_ID":"2025-203K","EPOCH":"2026-03-07T13:51:20.072160","MEAN_MOTION":13.83296019,"ECCENTRICITY":0.00068814,"INCLINATION":81.2974,"RA_OF_ASC_NODE":104.9219,"ARG_OF_PERICENTER":115.4512,"MEAN_ANOMALY":244.7357,"EPHEMERIS_TYPE":0,"CLASSIFICATION_TYPE":"U","NORAD_CAT_ID":65574,"ELEMENT_SET_NO":999,"REV_AT_EPOCH":2463,"BSTAR":0.00027570294,"MEAN_MOTION_DOT":3.15e-6,"MEAN_MOTION_DDOT":0},{"OBJECT_NAME":"PRAETORIAN SDA_612","OBJECT_ID":"2025-203L","EPOCH":"2026-03-07T14:54:56.711808","MEAN_MOTION":13.85045643,"ECCENTRICITY":0.00104119,"INCLINATION":81.2998,"RA_OF_ASC_NODE":104.7163,"ARG_OF_PERICENTER":107.5173,"MEAN_ANOMALY":252.7123,"EPHEMERIS_TYPE":0,"CLASSIFICATION_TYPE":"U","NORAD_CAT_ID":65575,"ELEMENT_SET_NO":999,"REV_AT_EPOCH":2465,"BSTAR":0.00026416279,"MEAN_MOTION_DOT":3.11e-6,"MEAN_MOTION_DDOT":0},{"OBJECT_NAME":"PRAETORIAN SDA_613","OBJECT_ID":"2025-203M","EPOCH":"2026-03-07T15:02:51.610272","MEAN_MOTION":13.8298673,"ECCENTRICITY":0.00071682,"INCLINATION":81.2968,"RA_OF_ASC_NODE":104.8162,"ARG_OF_PERICENTER":108.99,"MEAN_ANOMALY":251.2034,"EPHEMERIS_TYPE":0,"CLASSIFICATION_TYPE":"U","NORAD_CAT_ID":65576,"ELEMENT_SET_NO":999,"REV_AT_EPOCH":2464,"BSTAR":0.00024369146,"MEAN_MOTION_DOT":2.78e-6,"MEAN_MOTION_DDOT":0},{"OBJECT_NAME":"PRAETORIAN SDA_614","OBJECT_ID":"2025-203N","EPOCH":"2026-03-07T14:11:53.032128","MEAN_MOTION":13.84765457,"ECCENTRICITY":0.00083984,"INCLINATION":81.2983,"RA_OF_ASC_NODE":104.7969,"ARG_OF_PERICENTER":105.9697,"MEAN_ANOMALY":254.2386,"EPHEMERIS_TYPE":0,"CLASSIFICATION_TYPE":"U","NORAD_CAT_ID":65577,"ELEMENT_SET_NO":999,"REV_AT_EPOCH":2465,"BSTAR":5.2483288e-5,"MEAN_MOTION_DOT":7.1e-7,"MEAN_MOTION_DDOT":0},{"OBJECT_NAME":"PRAETORIAN SDA_615","OBJECT_ID":"2025-203P","EPOCH":"2026-03-07T14:46:28.862976","MEAN_MOTION":13.84421972,"ECCENTRICITY":0.0010279,"INCLINATION":81.2993,"RA_OF_ASC_NODE":104.6743,"ARG_OF_PERICENTER":105.8337,"MEAN_ANOMALY":254.3954,"EPHEMERIS_TYPE":0,"CLASSIFICATION_TYPE":"U","NORAD_CAT_ID":65578,"ELEMENT_SET_NO":999,"REV_AT_EPOCH":2465,"BSTAR":0.00024890275,"MEAN_MOTION_DOT":2.91e-6,"MEAN_MOTION_DDOT":0},{"OBJECT_NAME":"PRAETORIAN SDA_616","OBJECT_ID":"2025-203Q","EPOCH":"2026-03-07T13:50:13.262496","MEAN_MOTION":13.83297379,"ECCENTRICITY":0.00066574,"INCLINATION":81.3036,"RA_OF_ASC_NODE":105.0068,"ARG_OF_PERICENTER":115.1161,"MEAN_ANOMALY":245.0686,"EPHEMERIS_TYPE":0,"CLASSIFICATION_TYPE":"U","NORAD_CAT_ID":65579,"ELEMENT_SET_NO":999,"REV_AT_EPOCH":2463,"BSTAR":0.00023707098,"MEAN_MOTION_DOT":2.72e-6,"MEAN_MOTION_DDOT":0}]
