SAPPHIRE                
1 39088U 13009C   26066.51650237  .00000272  00000+0  11003-3 0  9998
2 39088  98.4218 248.3954 0011080 186.0540 174.0513 14.35208115681995
PRAETORIAN SDA_602      
1 65565U 25203A   26066.54833368  .00000269  00000+0  22992-3 0  9992
2 65565  81.3004 104.9240 0007305 107.8982 252.2972 13.84331685 24631
PRAETORIAN SDA_603      
1 65566U 25203B   26066.61534588  .00000336  00000+0  29176-3 0  9999
2 65566  81.3003 104.7044 0010774 106.8913 253.3426 13.83902646 24656
PRAETORIAN SDA_604      
1 65567U 25203C   26066.57188408  .00000071  00000+0  54192-4 0  9994
2 65567  81.3024 105.0013 0006787 113.1765 247.0107 13.83034022 24633
PRAETORIAN SDA_605      
1 65568U 25203D   26066.56773454  .00000090  00000+0  71223-4 0  9990
2 65568  81.2986 104.7718 0009542 103.5369 256.6851 13.83528689 24643
PRAETORIAN SDA_606      
1 65569U 25203E   26066.62560019  .00000293  00000+0  25544-3 0  9998
2 65569  81.3021 104.9066 0007214 106.1180 254.0771 13.83530613 24640
PRAETORIAN SDA_607      
1 65570U 25203F   26066.62252340  .00000260  00000+0  22181-3 0  9993
2 65570  81.3007 104.7227 0010231 106.9088 253.3192 13.84464434 24659
PRAETORIAN SDA_608      
1 65571U 25203G   26066.56428688  .00000079  00000+0  60572-4 0  9992
2 65571  81.2977 104.8952 0007183 112.6257 247.5660 13.83886649 24633
PRAETORIAN SDA_609      
1 65572U 25203H   26066.60219157  .00000286  00000+0  24556-3 0  9998
2 65572  81.3020 104.8679 0008157 106.2606 253.9449 13.84314432 24643
PRAETORIAN SDA_610      
1 65573U 25203J   26066.62060738  .00000088  00000+0  68510-4 0  9999
2 65573  81.2978 104.8090 0007793 107.8765 252.3242 13.84011023 24644
PRAETORIAN SDA_611      
1 65574U 25203K   26066.57731565  .00000315  00000+0  27570-3 0  9990
2 65574  81.2974 104.9219 0006881 115.4512 244.7357 13.83296019 24637
PRAETORIAN SDA_612      
1 65575U 25203L   26066.62148972  .00000311  00000+0  26416-3 0  9995
2 65575  81.2998 104.7163 0010411 107.5173 252.7123 13.85045643 24658
PRAETORIAN SDA_613      
1 65576U 25203M   26066.62698623  .00000278  00000+0  24369-3 0  9996
2 65576  81.2968 104.8162 0007168 108.9900 251.2034 13.82986730 24646
PRAETORIAN SDA_614      
1 65577U 25203N   26066.59158602  .00000071  00000+0  52483-4 0  9991
2 65577  81.2983 104.7969 0008398 105.9697 254.2386 13.84765457 24651
PRAETORIAN SDA_615      
1 65578U 25203P   26066.61561184  .00000291  00000+0  24890-3 0  9992
2 65578  81.2993 104.6743 0010279 105.8337 254.3954 13.84421972 24656
PRAETORIAN SDA_616      
1 65579U 25203Q   26066.57654239  .00000272  00000+0  23707-3 0  9997
2 65579  81.3036 105.0068 0006657 115.1161 245.0686 13.83297379 24633
